OBJECT_NAME,OBJECT_ID,EPOCH,MEAN_MOTION,ECCENTRICITY,INCLINATION,RA_OF_ASC_NODE,ARG_OF_PERICENTER,MEAN_ANOMALY,EPHEMERIS_TYPE,CLASSIFICATION_TYPE,NORAD_CAT_ID,ELEMENT_SET_NO,REV_AT_EPOCH,BSTAR,MEAN_MOTION_DOT,MEAN_MOTION_DDOT
CUBEBUG-2 (LO-74),2013-066AA,2026-06-11T18:30:32.870592,14.93717789,.00588714,97.8899,111.7263,46.5267,314.0826,0,U,39440,999,67618,.3329133E-3,.3584E-4,0
FUNCUBE-1 (AO-73),2013-066AE,2026-06-11T13:18:21.085344,15.09420112,.0035145,97.8262,133.8824,220.5848,139.2760,0,U,39444,999,67881,.34659E-3,.5554E-4,0
UWE-3,2013-066AG,2026-06-11T19:14:11.633856,14.96981046,.00484318,97.8684,118.8390,339.1228,20.8015,0,U,39446,999,67677,.33651693E-3,.39E-4,0
UNISAT-6,2014-033C,2026-06-11T22:56:55.317120,14.88217877,.00464054,97.7868,315.7608,86.0856,274.5665,0,U,40012,999,64538,.28435215E-3,.262E-4,0
DUCHIFAT-1,2014-033M,2026-06-11T21:41:01.164480,15.63537353,.00039436,98.0478,221.3257,124.8208,235.3420,0,U,40021,999,65492,.102888E-2,.96111E-3,0
QB50P1,2014-033R,2026-06-11T22:38:26.164032,15.18181286,.00073372,98.0964,173.7217,235.8215,124.2322,0,U,40025,999,65223,.35123958E-3,.7108E-4,0
LILACSAT-2,2015-049K,2026-06-11T22:02:49.475616,15.51271283,.00052709,97.4657,199.5600,270.3771,89.6877,0,U,40908,999,59493,.27187753E-3,.15855E-3,0
FOX-1A (AO-85),2015-058D,2026-06-11T17:14:16.526976,14.90943463,.0130128,64.7758,295.9784,58.7261,302.6519,0,U,40967,999,11275,.20996848E-3,.2264E-4,0
CAS-2T & KS-1Q,2016-066G,2026-06-11T18:27:17.821728,14.44676151,.03426192,98.3821,238.5671,145.8677,216.5069,0,U,41847,999,50401,.21365603E-3,.1472E-4,0
RADFXSAT (FOX-1B),2017-073E,2026-06-11T14:02:53.808000,15.12626564,.015045,97.4718,29.9151,348.6412,11.1435,0,U,43017,999,46454,.38005E-3,.8698E-4,0
DIWATA-2B,2018-084H,2026-06-11T21:38:09.521376,15.00428452,.00122132,98.1180,358.8808,187.2831,172.8216,0,U,43678,999,41542,.21608271E-3,.2655E-4,0
ES'HAIL 2,2018-090A,2026-06-11T22:47:45.269664,1.00267802,.00015709,0.0178,322.8967,154.1393,151.0085,0,U,43700,999,2762,0,.16E-5,0
FOX-1CLIFF (AO-95),2018-099N,2026-06-11T02:42:51.950592,15.26583130,.00086139,97.4393,222.3819,20.0469,340.1107,0,U,43770,999,41229,.4121126E-3,.10727E-3,0
ITASAT,2018-099AE,2026-06-11T22:47:08.692224,15.18991868,.00126917,97.4035,214.5656,18.7421,341.4278,0,U,43786,999,41211,.31133608E-3,.646E-4,0
JY1SAT (JO-97),2018-099AX,2026-06-11T17:53:13.837920,15.33481844,.00041302,97.4133,225.5608,289.1564,70.9231,0,U,43803,999,41279,.50037847E-3,.16134E-3,0
UWE-4,2018-111E,2026-06-11T18:40:29.161920,15.45791225,.00065196,97.5852,90.9210,5.5235,354.6084,0,U,43880,999,40994,.68243889E-3,.33079E-3,0
TIANYAN 01,2019-093C,2026-06-11T22:17:43.828800,14.86508498,.0014978,97.7533,235.2892,102.3062,257.9831,0,U,44881,999,35063,.14289794E-4,.73E-6,0
RS-44 & BREEZE-KM R/B,2019-096E,2026-06-11T22:09:41.293440,12.79748770,.02179403,82.5217,343.2034,156.4371,204.6900,0,U,44909,999,30167,.69757757E-4,.3E-6,0
SALSAT,2020-068K,2026-06-11T23:28:22.640448,15.29724756,.00084963,97.8848,165.7257,329.8396,30.2352,0,U,46495,999,31456,.24606051E-3,.7008E-4,0
XW-3 (CAS-9),2021-131B,2026-06-11T23:41:17.026368,14.41352679,.0005282,98.4973,255.4047,108.2451,251.9313,0,U,50466,999,23436,.1439855E-3,.422E-5,0
GREENCUBE (IO-117),2022-080E,2026-06-01T11:09:37.753056,6.42583280,.00088692,70.1435,303.7143,293.3663,66.6064,0,U,53109,999,9105,0,-.3E-7,0
UMKA 1 (RS40S),2023-091G,2026-06-11T21:30:08.194752,15.20756133,.0014033,97.5058,221.6133,134.1825,226.0566,0,U,57172,999,16320,.25359223E-3,.5527E-4,0
CUBESX-HSE 3 (RS42S),2023-091N,2026-06-11T22:41:45.068928,15.31080586,.00121373,97.5100,228.4667,110.7649,249.4893,0,U,57178,999,16362,.41544797E-3,.1243E-3,0
MONITOR-3 (RS58S),2023-091Q,2026-06-11T23:00:25.581024,15.27735150,.0013098,97.5091,226.3661,116.8255,243.4325,0,U,57180,999,16349,.35292704E-3,.9513E-4,0
MONITOR-4 (RS57S),2023-091S,2026-06-11T22:30:41.474592,15.27824419,.00130992,97.5085,226.3165,117.2390,243.0185,0,U,57182,999,16349,.3377722E-3,.9126E-4,0
MONITOR-2 (RS39S),2023-091U,2026-06-11T21:51:12.650976,15.18860563,.00125688,97.5079,221.2272,127.1985,233.0398,0,U,57184,999,16315,.22881417E-3,.4709E-4,0
SVYATOBOR 1 (RS60S),2023-091X,2026-06-11T22:43:05.267136,15.26524550,.00109119,97.5097,226.7345,110.0732,250.1682,0,U,57187,999,16351,.31792833E-3,.8245E-4,0
VIZARD-METEO (RS38S),2023-091Z,2026-06-11T22:27:28.229760,15.35857512,.00085616,97.5099,232.3157,93.5503,266.6720,0,U,57189,999,16388,.45373747E-3,.15782E-3,0
POLYTECH-UNIVERSE 3 (RS46S),2023-091AB,2026-06-11T22:31:23.083968,15.19062128,.00165557,97.5055,220.7597,143.5296,216.7069,0,U,57191,999,16315,.20861168E-3,.4318E-4,0
UTMN 2 (RS27S),2023-091AP,2026-06-11T21:37:08.876352,15.31920910,.00094692,97.5096,230.0487,99.3925,260.8387,0,U,57203,999,16373,.38308276E-3,.11748E-3,0
